{"type": "FeatureCollection", "features": [ {"type": "Feature", "properties": {"norad_id": 36011, "name": "IRIDIUM 33 DEB", "group": "iridium-33-debris", "lat": -75.10079695164725, "lon": -130.5503463059157, "alt_km": 751.7446885534309, "timestamp": "2025-12-12T11:38:31.797870+00:00", "meta": {"OBJECT_NAME": "IRIDIUM 33 DEB", "OBJECT_ID": "1997-051US", "EPOCH": "2025-12-11T21:42:29.079072", "MEAN_MOTION": 14.41326157, "ECCENTRICITY": 0.0017563, "INCLINATION": 86.3411, "RA_OF_ASC_NODE": 35.7829, "ARG_OF_PERICENTER": 218.6873, "MEAN_ANOMALY": 266.0791, "EPHEMERIS_TYPE": 0, "CLASSIFICATION_TYPE": "U", "NORAD_CAT_ID": 36011, "ELEMENT_SET_NO": 999, "REV_AT_EPOCH": 64528, "BSTAR": 0.00076231, "MEAN_MOTION_DOT": 2.489e-05, "MEAN_MOTION_DDOT": 0}, "tle": {"line1": "1 36011U 97051US  25345.90450323  .00002489  00000+0  76231-3 0  9992", "line2": "2 36011  86.3411  35.7829 0017563 218.6873 266.0791 14.41326157645287"}}, "geometry": {"type": "Point", "coordinates": [-130.5503463059157, -75.10079695164725]}}, {"type": "Feature", "properties": {"norad_id": 36012, "name": "IRIDIUM 33 DEB", "group": "iridium-33-debris", "lat": -18.55541941965901, "lon": 128.83439501203006, "alt_km": 768.2166961196235, "timestamp": "2025-12-12T11:38:31.797880+00:00", "meta": {"OBJECT_NAME": "IRIDIUM 33 DEB", "OBJECT_ID": "1997-051UT", "EPOCH": "2025-12-09T14:59:18.724128", "MEAN_MOTION": 14.18848487, "ECCENTRICITY": 0.0212452, "INCLINATION": 86.4428, "RA_OF_ASC_NODE": 308.7902, "ARG_OF_PERICENTER": 273.2722, "MEAN_ANOMALY": 84.4182, "EPHEMERIS_TYPE": 0, "CLASSIFICATION_TYPE": "U", "NORAD_CAT_ID": 36012, "ELEMENT_SET_NO": 999, "REV_AT_EPOCH": 65440, "BSTAR": 0.0096093, "MEAN_MOTION_DOT": 0.00025103, "MEAN_MOTION_DDOT": 0}, "tle": {"line1": "1 36012U 97051UT  25343.62452227  .00025103  00000+0  96093-2 0  9990", "line2": "2 36012  86.4428 308.7902 0212452 273.2722  84.4182 14.18848487654405"}}, "geometry": {"type": "Point", "coordinates": [128.83439501203006, -18.55541941965901]}}, {"type": "Feature", "properties": {"norad_id": 36028, "name": "IRIDIUM 33 DEB", "group": "iridium-33-debris", "lat": -33.41096840174595, "lon": 129.2500271018509, "alt_km": 602.1323441993536, "timestamp": "2025-12-12T11:38:31.797891+00:00", "meta": {"OBJECT_NAME": "IRIDIUM 33 DEB", "OBJECT_ID": "1997-051VK", "EPOCH": "2025-12-11T04:10:27.703200", "MEAN_MOTION": 14.95164373, "ECCENTRICITY": 0.00218507, "INCLINATION": 86.3224, "RA_OF_ASC_NODE": 307.4347, "ARG_OF_PERICENTER": 58.0389, "MEAN_ANOMALY": 302.2961, "EPHEMERIS_TYPE": 0, "CLASSIFICATION_TYPE": "U", "NORAD_CAT_ID": 36028, "ELEMENT_SET_NO": 999, "REV_AT_EPOCH": 87101, "BSTAR": 0.0035199415, "MEAN_MOTION_DOT": 0.00039008, "MEAN_MOTION_DDOT": 0}, "tle": {"line1": "1 36028U 97051VK  25345.17393175  .00039008  00000+0  35199-2 0  9994", "line2": "2 36028  86.3224 307.4347 0021850  58.0389 302.2961 14.95164373871016"}}, "geometry": {"type": "Point", "coordinates": [129.2500271018509, -33.41096840174595]}}, {"type": "Feature", "properties": {"norad_id": 36080, "name": "IRIDIUM 33 DEB", "group": "iridium-33-debris", "lat": 63.60861834453526, "lon": -179.35467633698485, "alt_km": 721.0309087529849, "timestamp": "2025-12-12T11:38:31.797900+00:00", "meta": {"OBJECT_NAME": "IRIDIUM 33 DEB", "OBJECT_ID": "1997-051VM", "EPOCH": "2025-12-09T08:24:04.128192", "MEAN_MOTION": 14.46584309, "ECCENTRICITY": 0.0017863, "INCLINATION": 86.3197, "RA_OF_ASC_NODE": 9.4635, "ARG_OF_PERICENTER": 167.4902, "MEAN_ANOMALY": 192.6748, "EPHEMERIS_TYPE": 0, "CLASSIFICATION_TYPE": "U", "NORAD_CAT_ID": 36080, "ELEMENT_SET_NO": 999, "REV_AT_EPOCH": 47365, "BSTAR": 0.0010095558, "MEAN_MOTION_DOT": 3.665e-05, "MEAN_MOTION_DDOT": 0}, "tle": {"line1": "1 36080U 97051VM  25343.35004778  .00003665  00000+0  10096-2 0  9997", "line2": "2 36080  86.3197   9.4635 0017863 167.4902 192.6748 14.46584309473650"}}, "geometry": {"type": "Point", "coordinates": [-179.35467633698485, 63.60861834453526]}}, {"type": "Feature", "properties": {"norad_id": 36083, "name": "IRIDIUM 33 DEB", "group": "iridium-33-debris", "lat": -31.483267285146013, "lon": -143.49194675301368, "alt_km": 736.8497454613507, "timestamp": "2025-12-12T11:38:31.797910+00:00", "meta": {"OBJECT_NAME": "IRIDIUM 33 DEB", "OBJECT_ID": "1997-051VQ", "EPOCH": "2025-12-06T21:32:26.892672", "MEAN_MOTION": 14.43175138, "ECCENTRICITY": 0.00247889, "INCLINATION": 86.3442, "RA_OF_ASC_NODE": 36.6683, "ARG_OF_PERICENTER": 243.3344, "MEAN_ANOMALY": 116.5319, "EPHEMERIS_TYPE": 0, "CLASSIFICATION_TYPE": "U", "NORAD_CAT_ID": 36083, "ELEMENT_SET_NO": 999, "REV_AT_EPOCH": 85365, "BSTAR": 0.00098432537, "MEAN_MOTION_DOT": 3.337e-05, "MEAN_MOTION_DDOT": 0}, "tle": {"line1": "1 36083U 97051VQ  25340.89753348  .00003337  00000+0  98433-3 0  9998", "line2": "2 36083  86.3442  36.6683 0024788 243.3344 116.5319 14.43175138853653"}}, "geometry": {"type": "Point", "coordinates": [-143.49194675301368, -31.483267285146013]}}, {"type": "Feature", "properties": {"norad_id": 36390, "name": "IRIDIUM 33 DEB", "group": "iridium-33-debris", "lat": 1.8186778209426153, "lon": -60.37229944234689, "alt_km": 672.5671607555587, "timestamp": "2025-12-12T11:38:31.797920+00:00", "meta": {"OBJECT_NAME": "IRIDIUM 33 DEB", "OBJECT_ID": "1997-051VU", "EPOCH": "2025-12-10T04:13:18.491808", "MEAN_MOTION": 14.73548967, "ECCENTRICITY": 0.00303441, "INCLINATION": 86.2912, "RA_OF_ASC_NODE": 300.5678, "ARG_OF_PERICENTER": 170.4809, "MEAN_ANOMALY": 189.6991, "EPHEMERIS_TYPE": 0, "CLASSIFICATION_TYPE": "U", "NORAD_CAT_ID": 36390, "ELEMENT_SET_NO": 999, "REV_AT_EPOCH": 66224, "BSTAR": 0.0016206136, "MEAN_MOTION_DOT": 0.00010646, "MEAN_MOTION_DDOT": 0}, "tle": {"line1": "1 36390U 97051VU  25344.17590847  .00010646  00000+0  16206-2 0  9995", "line2": "2 36390  86.2912 300.5678 0030344 170.4809 189.6991 14.73548967662240"}}, "geometry": {"type": "Point", "coordinates": [-60.37229944234689, 1.8186778209426153]}}, {"type": "Feature", "properties": {"norad_id": 36483, "name": "IRIDIUM 33 DEB", "group": "iridium-33-debris", "lat": 12.396900349064182, "lon": 53.39554219580208, "alt_km": 743.748019650332, "timestamp": "2025-12-12T11:38:31.797930+00:00", "meta": {"OBJECT_NAME": "IRIDIUM 33 DEB", "OBJECT_ID": "1997-051VZ", "EPOCH": "2025-12-10T11:24:52.773984", "MEAN_MOTION": 14.45797209, "ECCENTRICITY": 0.00110254, "INCLINATION": 86.3794, "RA_OF_ASC_NODE": 53.458, "ARG_OF_PERICENTER": 132.1914, "MEAN_ANOMALY": 228.0226, "EPHEMERIS_TYPE": 0, "CLASSIFICATION_TYPE": "U", "NORAD_CAT_ID": 36483, "ELEMENT_SET_NO": 999, "REV_AT_EPOCH": 65113, "BSTAR": 0.00078050397, "MEAN_MOTION_DOT": 2.789e-05, "MEAN_MOTION_DDOT": 0}, "tle": {"line1": "1 36483U 97051VZ  25344.47561081  .00002789  00000+0  78050-3 0  9994", "line2": "2 36483  86.3794  53.4580 0011025 132.1914 228.0226 14.45797209651134"}}, "geometry": {"type": "Point", "coordinates": [53.39554219580208, 12.396900349064182]}}, {"type": "Feature", "properties": {"norad_id": 36490, "name": "IRIDIUM 33 DEB", "group": "iridium-33-debris", "lat": -61.60467793335159, "lon": -162.67011883248531, "alt_km": 652.363098830132, "timestamp": "2025-12-12T11:38:31.797939+00:00", "meta": {"OBJECT_NAME": "IRIDIUM 33 DEB", "OBJECT_ID": "1997-051WG", "EPOCH": "2025-12-10T08:06:56.843424", "MEAN_MOTION": 14.76107683, "ECCENTRICITY": 0.000555, "INCLINATION": 86.3658, "RA_OF_ASC_NODE": 11.546, "ARG_OF_PERICENTER": 88.8024, "MEAN_ANOMALY": 271.3831, "EPHEMERIS_TYPE": 0, "CLASSIFICATION_TYPE": "U", "NORAD_CAT_ID": 36490, "ELEMENT_SET_NO": 999, "REV_AT_EPOCH": 86449, "BSTAR": 0.0023364, "MEAN_MOTION_DOT": 0.00016171, "MEAN_MOTION_DDOT": 0}, "tle": {"line1": "1 36490U 97051WG  25344.33815791  .00016171  00000+0  23364-2 0  9994", "line2": "2 36490  86.3658  11.5460 0005550  88.8024 271.3831 14.76107683864491"}}, "geometry": {"type": "Point", "coordinates": [-162.67011883248531, -61.60467793335159]}}, {"type": "Feature", "properties": {"norad_id": 36493, "name": "IRIDIUM 33 DEB", "group": "iridium-33-debris", "lat": 5.370914783098728, "lon": -168.55015014999083, "alt_km": 685.9453916598395, "timestamp": "2025-12-12T11:38:31.797949+00:00", "meta": {"OBJECT_NAME": "IRIDIUM 33 DEB", "OBJECT_ID": "1997-051WK", "EPOCH": "2025-12-10T19:30:39.824352", "MEAN_MOTION": 14.6519132, "ECCENTRICITY": 0.00104457, "INCLINATION": 86.3571, "RA_OF_ASC_NODE": 12.5357, "ARG_OF_PERICENTER": 11.652, "MEAN_ANOMALY": 348.4933, "EPHEMERIS_TYPE": 0, "CLASSIFICATION_TYPE": "U", "NORAD_CAT_ID": 36493, "ELEMENT_SET_NO": 999, "REV_AT_EPOCH": 74490, "BSTAR": 0.0018600988, "MEAN_MOTION_DOT": 0.00010041, "MEAN_MOTION_DDOT": 0}, "tle": {"line1": "1 36493U 97051WK  25344.81296093  .00010041  00000+0  18601-2 0  9996", "line2": "2 36493  86.3571  12.5357 0010445  11.6520 348.4933 14.65191320744909"}}, "geometry": {"type": "Point", "coordinates": [-168.55015014999083, 5.370914783098728]}}, {"type": "Feature", "properties": {"norad_id": 37548, "name": "IRIDIUM 33 DEB", "group": "iridium-33-debris", "lat": 14.207887079265722, "lon": 44.40456620020414, "alt_km": 740.3789825505637, "timestamp": "2025-12-12T11:38:31.797959+00:00", "meta": {"OBJECT_NAME": "IRIDIUM 33 DEB", "OBJECT_ID": "1997-051XH", "EPOCH": "2025-12-10T21:30:59.995872", "MEAN_MOTION": 14.51276893, "ECCENTRICITY": 0.0025313, "INCLINATION": 86.3513, "RA_OF_ASC_NODE": 44.17, "ARG_OF_PERICENTER": 194.8863, "MEAN_ANOMALY": 165.16, "EPHEMERIS_TYPE": 0, "CLASSIFICATION_TYPE": "U", "NORAD_CAT_ID": 37548, "ELEMENT_SET_NO": 999, "REV_AT_EPOCH": 65505, "BSTAR": 0.0015557, "MEAN_MOTION_DOT": 6.233e-05, "MEAN_MOTION_DDOT": 0}, "tle": {"line1": "1 37548U 97051XH  25344.89652773  .00006233  00000+0  15557-2 0  9992", "line2": "2 37548  86.3513  44.1700 0025313 194.8863 165.1600 14.51276893655050"}}, "geometry": {"type": "Point", "coordinates": [44.40456620020414, 14.207887079265722]}}]}